{
  "1144886441": {
    "npi": "1144886441",
    "name": "ABBASSI, ISLAM",
    "address": "1405 ROUTE 18 STE 105",
    "city": "OLD BRIDGE",
    "state": "NJ",
    "zip": "08857"
  },
  "1740259639": {
    "npi": "1740259639",
    "name": "ADEOTI, ADEKUNLE",
    "address": "277 COIT ST",
    "city": "IRVINGTON",
    "state": "NJ",
    "zip": "07111"
  },
  "1407952104": {
    "npi": "1407952104",
    "name": "ADLER, DANIEL",
    "address": "425 E 61ST ST",
    "city": "NEW YORK",
    "state": "NY",
    "zip": "10021"
  },
  "1578598314": {
    "npi": "1578598314",
    "name": "AHN, MICHAEL",
    "address": "122 CLINTON ST",
    "city": "HOBOKEN",
    "state": "NJ",
    "zip": "07030"
  },
  "1801873518": {
    "npi": "1801873518",
    "name": "AISENBERG, JAMES",
    "address": "PO BOX 780217",
    "city": "MASPETH",
    "state": "NY",
    "zip": "11378"
  },
  "1063412708": {
    "npi": "1063412708",
    "name": "ALPERT, DANIEL",
    "address": "345 E 37TH ST",
    "city": "NEW YORK",
    "state": "NY",
    "zip": "10016"
  },
  "1760970610": {
    "npi": "1760970610",
    "name": "ANIS, ARSANY",
    "address": "629 CRANBURY RD FL 2",
    "city": "EAST BRUNSWICK",
    "state": "NJ",
    "zip": "08816"
  },
  "1043789860": {
    "npi": "1043789860",
    "name": "ARIZMENDI, ADA",
    "address": "258 N CHICKASAW TRL",
    "city": "ORLANDO",
    "state": "FL",
    "zip": "32825"
  },
  "1598003071": {
    "npi": "1598003071",
    "name": "ASFARI, MOHAMMAD MAYSARA",
    "address": "2415 N ORANGE AVE STE 200",
    "city": "ORLANDO",
    "state": "FL",
    "zip": "32804"
  },
  "1346402732": {
    "npi": "1346402732",
    "name": "BADILLO, RAUL",
    "address": "2005 MIZELL AVE STE 2100",
    "city": "WINTER PARK",
    "state": "FL",
    "zip": "32792"
  },
  "1467699405": {
    "npi": "1467699405",
    "name": "BADIN, SIMON",
    "address": "1947 JOHN F KENNEDY BLVD",
    "city": "JERSEY CITY",
    "state": "NJ",
    "zip": "07305"
  },
  "1205910999": {
    "npi": "1205910999",
    "name": "BAE, STEWART",
    "address": "3122 UNION ST APT 1B",
    "city": "FLUSHING",
    "state": "NY",
    "zip": "11354"
  },
  "1093763039": {
    "npi": "1093763039",
    "name": "BAGHAL, EYAD",
    "address": "160 HALEDON AVE",
    "city": "PROSPECT PARK",
    "state": "NJ",
    "zip": "07508"
  },
  "1952588246": {
    "npi": "1952588246",
    "name": "BAMJI, NEVILLE",
    "address": "PO BOX 780217",
    "city": "MASPETH",
    "state": "NY",
    "zip": "11378"
  },
  "1164439964": {
    "npi": "1164439964",
    "name": "BECKER, GARY",
    "address": "6 ROYAL CT",
    "city": "MANALAPAN",
    "state": "NJ",
    "zip": "07726"
  },
  "1205918679": {
    "npi": "1205918679",
    "name": "BHATNAGAR, TANUJ",
    "address": "52 BEACHMONT TER",
    "city": "NORTH CALDWELL",
    "state": "NJ",
    "zip": "07006"
  },
  "1942253414": {
    "npi": "1942253414",
    "name": "BLOKH, ILYA",
    "address": "3319 KINGS HWY",
    "city": "BROOKLYN",
    "state": "NY",
    "zip": "11234"
  },
  "1306266408": {
    "npi": "1306266408",
    "name": "BODEK, DANIEL",
    "address": "1308 MORRIS AVE STE 102",
    "city": "UNION",
    "state": "NJ",
    "zip": "07083"
  },
  "1518033687": {
    "npi": "1518033687",
    "name": "BODIAN, ADAM",
    "address": "11 GRACE AVE",
    "city": "GREAT NECK",
    "state": "NY",
    "zip": "11021"
  },
  "1083666010": {
    "npi": "1083666010",
    "name": "BOGHOSSIAN, JACK",
    "address": "631 BROADWAY",
    "city": "BAYONNE",
    "state": "NJ",
    "zip": "07002"
  },
  "1528008737": {
    "npi": "1528008737",
    "name": "BRANDT, FREDERICK",
    "address": "600 PAVONIA AVE",
    "city": "JERSEY CITY",
    "state": "NJ",
    "zip": "07306"
  },
  "1063771301": {
    "npi": "1063771301",
    "name": "CORREA, LUIS",
    "address": "323 62ND ST",
    "city": "WEST NEW YORK",
    "state": "NJ",
    "zip": "07093"
  },
  "1699889535": {
    "npi": "1699889535",
    "name": "COZZARELLI, JOHN",
    "address": "93 N SPRING GARDEN AVE",
    "city": "NUTLEY",
    "state": "NJ",
    "zip": "07110"
  },
  "1285321778": {
    "npi": "1285321778",
    "name": "CREUS, OLIVIA",
    "address": "12901 BRUCE B DOWNS BLVD # 5",
    "city": "TAMPA",
    "state": "FL",
    "zip": "33612"
  },
  "1184659823": {
    "npi": "1184659823",
    "name": "DE LA TORRE, ANDREW",
    "address": "703 MAIN ST",
    "city": "PATERSON",
    "state": "NJ",
    "zip": "07503"
  },
  "1003347311": {
    "npi": "1003347311",
    "name": "DEBESAI, MERON",
    "address": "330 GRAND ST",
    "city": "HOBOKEN",
    "state": "NJ",
    "zip": "07030"
  },
  "1194806075": {
    "npi": "1194806075",
    "name": "DEMETRIOU, CHRIS",
    "address": "623 STEWART AVE STE 106",
    "city": "GARDEN CITY",
    "state": "NY",
    "zip": "11530"
  },
  "1083889968": {
    "npi": "1083889968",
    "name": "DESAI, JAY",
    "address": "17 CAZENOVE ST",
    "city": "BOSTON",
    "state": "MA",
    "zip": "02116"
  },
  "1073687273": {
    "npi": "1073687273",
    "name": "DIKENGIL, YAHYA",
    "address": "388 POMPTON AVE",
    "city": "CEDAR GROVE",
    "state": "NJ",
    "zip": "07009"
  },
  "1972527950": {
    "npi": "1972527950",
    "name": "ELAMIR, MAZHAR",
    "address": "192 HARRISON AVE",
    "city": "JERSEY CITY",
    "state": "NJ",
    "zip": "07304"
  },
  "1467807438": {
    "npi": "1467807438",
    "name": "ELAMIR, YASMINE",
    "address": "355 GRAND ST",
    "city": "JERSEY CITY",
    "state": "NJ",
    "zip": "07302"
  },
  "1548287386": {
    "npi": "1548287386",
    "name": "ELDIN, ALAA",
    "address": "550 SUMMIT AVE",
    "city": "JERSEY CITY",
    "state": "NJ",
    "zip": "07306"
  },
  "1861980138": {
    "npi": "1861980138",
    "name": "ELKATTAWY, IBRAHIM",
    "address": "2761 JOHN F KENNEDY BLVD",
    "city": "JERSEY CITY",
    "state": "NJ",
    "zip": "07306"
  },
  "1730386657": {
    "npi": "1730386657",
    "name": "ERBER, JONATHAN",
    "address": "591 OCEAN PKWY",
    "city": "BROOKLYN",
    "state": "NY",
    "zip": "11218"
  },
  "1588661052": {
    "npi": "1588661052",
    "name": "ERBER, WILLIAM",
    "address": "591 OCEAN PKWY",
    "city": "BROOKLYN",
    "state": "NY",
    "zip": "11218"
  },
  "1871023192": {
    "npi": "1871023192",
    "name": "ESTIFAN, ELIAS",
    "address": "101 OLD SHORT HILLS RD STE 217",
    "city": "WEST ORANGE",
    "state": "NJ",
    "zip": "07052"
  },
  "1144682568": {
    "npi": "1144682568",
    "name": "FALCONE, JOHN",
    "address": "215 E 68TH ST OFC 8",
    "city": "NEW YORK",
    "state": "NY",
    "zip": "10065"
  },
  "1558352740": {
    "npi": "1558352740",
    "name": "FALLER, JASON",
    "address": "333 W 57TH ST",
    "city": "NEW YORK",
    "state": "NY",
    "zip": "10019"
  },
  "1194160002": {
    "npi": "1194160002",
    "name": "FARSHADSEFAT, SEINA",
    "address": "811 E SOUTH BLVD",
    "city": "ROCHESTER HILLS",
    "state": "MI",
    "zip": "48307"
  },
  "1578164745": {
    "npi": "1578164745",
    "name": "FINKEL, SUZANNE",
    "address": "300 CADMAN PLZ W",
    "city": "BROOKLYN",
    "state": "NY",
    "zip": "11201"
  },
  "1205945086": {
    "npi": "1205945086",
    "name": "FISHBEIN, SUSAN",
    "address": "663 PALISADE AVE",
    "city": "CLIFFSIDE PARK",
    "state": "NJ",
    "zip": "07010"
  },
  "1205817277": {
    "npi": "1205817277",
    "name": "FOCAZIO, WILLIAM",
    "address": "999 CLIFTON AVE",
    "city": "CLIFTON",
    "state": "NJ",
    "zip": "07013"
  },
  "1487946166": {
    "npi": "1487946166",
    "name": "FRADO, LAURA",
    "address": "311 E 79TH ST STE 2A",
    "city": "NEW YORK",
    "state": "NY",
    "zip": "10075"
  },
  "1982924866": {
    "npi": "1982924866",
    "name": "FREUMAN, TAMARA",
    "address": "342 5TH ST",
    "city": "JERSEY CITY",
    "state": "NJ",
    "zip": "07302"
  },
  "1215696133": {
    "npi": "1215696133",
    "name": "FRIEDMAN, IRIT",
    "address": "7107 147TH ST",
    "city": "FLUSHING",
    "state": "NY",
    "zip": "11367"
  },
  "1760697213": {
    "npi": "1760697213",
    "name": "GALANTE, JASON",
    "address": "500 MORRIS AVE STE 203",
    "city": "SPRINGFIELD",
    "state": "NJ",
    "zip": "07081"
  },
  "1659380244": {
    "npi": "1659380244",
    "name": "GEORGE, JAMES",
    "address": "1751 YORK AVE",
    "city": "NEW YORK",
    "state": "NY",
    "zip": "10128"
  },
  "1023540382": {
    "npi": "1023540382",
    "name": "GEORGE, JOHN",
    "address": "2415 N ORANGE AVE STE 200",
    "city": "ORLANDO",
    "state": "FL",
    "zip": "32804"
  },
  "1427002153": {
    "npi": "1427002153",
    "name": "GOLDMAN, ALAN",
    "address": "130 BRIGHTON BEACH AVE",
    "city": "BROOKLYN",
    "state": "NY",
    "zip": "11235"
  },
  "1376617753": {
    "npi": "1376617753",
    "name": "GOLDSTEIN, ERIC",
    "address": "1974 1ST AVE",
    "city": "NEW YORK",
    "state": "NY",
    "zip": "10029"
  },
  "1902938392": {
    "npi": "1902938392",
    "name": "GOLDSTEIN, STEVEN",
    "address": "9057 PALISADE AVE",
    "city": "NORTH BERGEN",
    "state": "NJ",
    "zip": "07047"
  },
  "1760465579": {
    "npi": "1760465579",
    "name": "GONTER, NEIL",
    "address": "1415 QUEEN ANNE RD",
    "city": "TEANECK",
    "state": "NJ",
    "zip": "07666"
  },
  "1861580433": {
    "npi": "1861580433",
    "name": "GREENBLATT, ROBERT",
    "address": "2333 MORRIS AVE",
    "city": "UNION",
    "state": "NJ",
    "zip": "07083"
  },
  "1407385271": {
    "npi": "1407385271",
    "name": "GRIST, WILLIAM",
    "address": "355 GRAND ST",
    "city": "JERSEY CITY",
    "state": "NJ",
    "zip": "07302"
  },
  "1710901368": {
    "npi": "1710901368",
    "name": "GUMASTE, VIVEK",
    "address": "111 E 210TH ST",
    "city": "BRONX",
    "state": "NY",
    "zip": "10467"
  },
  "1922289628": {
    "npi": "1922289628",
    "name": "GUPTA, NEELAM",
    "address": "341 E MAIN ST",
    "city": "SAN JACINTO",
    "state": "CA",
    "zip": "92583"
  },
  "1871910620": {
    "npi": "1871910620",
    "name": "HALLER, SARAH",
    "address": "1455 E GOLF RD",
    "city": "DES PLAINES",
    "state": "IL",
    "zip": "60016"
  },
  "1538121926": {
    "npi": "1538121926",
    "name": "HAQUE, NADEEM",
    "address": "PO BOX 1807",
    "city": "BAYONNE",
    "state": "NJ",
    "zip": "07002"
  },
  "1437243748": {
    "npi": "1437243748",
    "name": "HARARY, ALBERT",
    "address": "225 E 57TH ST",
    "city": "NEW YORK",
    "state": "NY",
    "zip": "10022"
  },
  "1619107703": {
    "npi": "1619107703",
    "name": "HERMAN, KEVIN",
    "address": "718 TEANECK RD",
    "city": "TEANECK",
    "state": "NJ",
    "zip": "07666"
  },
  "1023514833": {
    "npi": "1023514833",
    "name": "HOLSAPPLE, TYLER",
    "address": "284 MILLBURN AVE",
    "city": "MILLBURN",
    "state": "NJ",
    "zip": "07041"
  },
  "1003488289": {
    "npi": "1003488289",
    "name": "ISLAM, SAAD",
    "address": "83 SUMMIT AVE",
    "city": "HACKENSACK",
    "state": "NJ",
    "zip": "07601"
  },
  "1649530403": {
    "npi": "1649530403",
    "name": "ITONDO, RITA",
    "address": "861 MAIN ST # 1",
    "city": "HACKENSACK",
    "state": "NJ",
    "zip": "07601"
  },
  "1801815105": {
    "npi": "1801815105",
    "name": "JAFFIN, BARRY",
    "address": "620 COLUMBUS AVE",
    "city": "NEW YORK",
    "state": "NY",
    "zip": "10024"
  },
  "1992983456": {
    "npi": "1992983456",
    "name": "JAGDEO, JARED",
    "address": "450 CLARKSON AVE FL 8",
    "city": "BROOKLYN",
    "state": "NY",
    "zip": "11203"
  },
  "1174756423": {
    "npi": "1174756423",
    "name": "KAFEEL, MUHAMMAD",
    "address": "13621 HILLSIDE AVE FL 2",
    "city": "RICHMOND HILL",
    "state": "NY",
    "zip": "11418"
  },
  "1164733739": {
    "npi": "1164733739",
    "name": "KAPOOR, ASHISH",
    "address": "PO BOX 4302",
    "city": "WARREN",
    "state": "NJ",
    "zip": "07059"
  },
  "1467569533": {
    "npi": "1467569533",
    "name": "KASHI, MARYAM",
    "address": "2415 N ORANGE AVE",
    "city": "ORLANDO",
    "state": "FL",
    "zip": "32804"
  },
  "1740693142": {
    "npi": "1740693142",
    "name": "KATKAR, RUJUTA",
    "address": "142 PALISADE AVE",
    "city": "JERSEY CITY",
    "state": "NJ",
    "zip": "07306"
  },
  "1720015837": {
    "npi": "1720015837",
    "name": "KAVALER, LEON",
    "address": "68 E 86TH ST",
    "city": "NEW YORK",
    "state": "NY",
    "zip": "10028"
  },
  "1780979682": {
    "npi": "1780979682",
    "name": "KHAN, AHSAN",
    "address": "258 S CHICKASAW TRL STE 300",
    "city": "ORLANDO",
    "state": "FL",
    "zip": "32825"
  },
  "1083851687": {
    "npi": "1083851687",
    "name": "KO, PAN",
    "address": "400 SYLVAN AVE",
    "city": "ENGLEWOOD CLIFFS",
    "state": "NJ",
    "zip": "07632"
  },
  "1710979158": {
    "npi": "1710979158",
    "name": "KODSI, ROBERT",
    "address": "300 SINGLETON RIDGE RD",
    "city": "CONWAY",
    "state": "SC",
    "zip": "29526"
  },
  "1104835784": {
    "npi": "1104835784",
    "name": "KORNBLUTH, ARTHUR",
    "address": "1751 YORK AVE",
    "city": "NEW YORK",
    "state": "NY",
    "zip": "10128"
  },
  "1013989599": {
    "npi": "1013989599",
    "name": "KOSS, TAMARA",
    "address": "260 MIDDLE COUNTRY RD",
    "city": "SMITHTOWN",
    "state": "NY",
    "zip": "11787"
  },
  "1255988432": {
    "npi": "1255988432",
    "name": "LEDESMA-APOLINARIO, LEILA",
    "address": "308 WILLOW AVE",
    "city": "HOBOKEN",
    "state": "NJ",
    "zip": "07030"
  },
  "1528453735": {
    "npi": "1528453735",
    "name": "LEE, RAYMOND",
    "address": "1020 GALLOPING HILL RD STE 100",
    "city": "UNION",
    "state": "NJ",
    "zip": "07083"
  },
  "1942219548": {
    "npi": "1942219548",
    "name": "LEGNANI, PETER",
    "address": "1150 5TH AVE",
    "city": "NEW YORK",
    "state": "NY",
    "zip": "10128"
  },
  "1265674998": {
    "npi": "1265674998",
    "name": "LEONG, JENNIFER",
    "address": "5 E 98TH ST FL 12",
    "city": "NEW YORK",
    "state": "NY",
    "zip": "10029"
  },
  "1245206655": {
    "npi": "1245206655",
    "name": "LEV-WEISSBERG, ANDREY",
    "address": "4514 DAVIS ST",
    "city": "SKOKIE",
    "state": "IL",
    "zip": "60076"
  },
  "1891894655": {
    "npi": "1891894655",
    "name": "LIPSCHITZ, ROBIN",
    "address": "160 E 72ND ST",
    "city": "NEW YORK",
    "state": "NY",
    "zip": "10021"
  },
  "1265538458": {
    "npi": "1265538458",
    "name": "LOWN, JONATHAN",
    "address": "2171 JERICHO TPKE",
    "city": "COMMACK",
    "state": "NY",
    "zip": "11725"
  },
  "1396906913": {
    "npi": "1396906913",
    "name": "MAHMOOD, NADER",
    "address": "127 UNION ST STE 105",
    "city": "RIDGEWOOD",
    "state": "NJ",
    "zip": "07450"
  },
  "1700991247": {
    "npi": "1700991247",
    "name": "MAHMOOD, SALEEM",
    "address": "66 EMERALD VALLEY LN",
    "city": "BASKING RIDGE",
    "state": "NJ",
    "zip": "07920"
  },
  "1750320040": {
    "npi": "1750320040",
    "name": "MANGIA, ANTHONY",
    "address": "239 WASHINGTON ST",
    "city": "JERSEY CITY",
    "state": "NJ",
    "zip": "07302"
  },
  "1922461953": {
    "npi": "1922461953",
    "name": "MCCABE, LINDSEY",
    "address": "2415 N ORANGE AVE STE 200",
    "city": "ORLANDO",
    "state": "FL",
    "zip": "32804"
  },
  "1184672149": {
    "npi": "1184672149",
    "name": "MCDOUGALL, CARL",
    "address": "60 E 56TH ST",
    "city": "NEW YORK",
    "state": "NY",
    "zip": "10022"
  },
  "1912164419": {
    "npi": "1912164419",
    "name": "METZ, YASMIN",
    "address": "60 E 56TH ST",
    "city": "NEW YORK",
    "state": "NY",
    "zip": "10022"
  },
  "1134212558": {
    "npi": "1134212558",
    "name": "MIAH, ASADUR",
    "address": "1575 HILLSIDE AVE",
    "city": "NEW HYDE PARK",
    "state": "NY",
    "zip": "11040"
  },
  "1164424099": {
    "npi": "1164424099",
    "name": "MILLER, KENNETH",
    "address": "PO BOX 780217",
    "city": "MASPETH",
    "state": "NY",
    "zip": "11378"
  },
  "1568781672": {
    "npi": "1568781672",
    "name": "MIQBEL, MOHAMMAD",
    "address": "320 43RD ST",
    "city": "UNION CITY",
    "state": "NJ",
    "zip": "07087"
  },
  "1659471720": {
    "npi": "1659471720",
    "name": "MORTON, JOHN",
    "address": "101 MADISON AVE",
    "city": "MORRISTOWN",
    "state": "NJ",
    "zip": "07960"
  },
  "1699199067": {
    "npi": "1699199067",
    "name": "MUGHNI, AZAM",
    "address": "176 PALISADE AVE",
    "city": "JERSEY CITY",
    "state": "NJ",
    "zip": "07306"
  },
  "1073556213": {
    "npi": "1073556213",
    "name": "MUNNE, GISELA",
    "address": "6 LA SALLE COURT",
    "city": "ROSELAND",
    "state": "NJ",
    "zip": "07068"
  },
  "1093787806": {
    "npi": "1093787806",
    "name": "NAYAR, DEVJIT",
    "address": "113 14TH ST",
    "city": "HOBOKEN",
    "state": "NJ",
    "zip": "07030"
  },
  "1730349218": {
    "npi": "1730349218",
    "name": "NAYMAGON, STEVEN",
    "address": "1 GUSTAVE L LEVY PL",
    "city": "NEW YORK",
    "state": "NY",
    "zip": "10029"
  },
  "1245329150": {
    "npi": "1245329150",
    "name": "OKO, PIOTR",
    "address": "33 CANTERBURY WAY",
    "city": "WAYNE",
    "state": "NJ",
    "zip": "07470"
  },
  "1306815618": {
    "npi": "1306815618",
    "name": "OKOYE, FREDERICK",
    "address": "PO BOX 428",
    "city": "STANHOPE",
    "state": "NJ",
    "zip": "07874"
  },
  "1134289499": {
    "npi": "1134289499",
    "name": "OPAM, OSAFRADU",
    "address": "80 MARCUS DR",
    "city": "MELVILLE",
    "state": "NY",
    "zip": "11747"
  },
  "1265474431": {
    "npi": "1265474431",
    "name": "PACHECO, PAULO",
    "address": "PO BOX 9167",
    "city": "UNIONDALE",
    "state": "NY",
    "zip": "11555"
  },
  "1598992380": {
    "npi": "1598992380",
    "name": "PARAGI, PRAKASH",
    "address": "18 SUBURBAN DR",
    "city": "WEST ORANGE",
    "state": "NJ",
    "zip": "07052"
  },
  "1689833840": {
    "npi": "1689833840",
    "name": "PASHINSKY, YEVGENIA",
    "address": "1 GUSTAVE L LEVY",
    "city": "NEW YORK",
    "state": "NY",
    "zip": "10029"
  },
  "1164733838": {
    "npi": "1164733838",
    "name": "PIERRE-LOUIS, FRANTZ",
    "address": "796 NORTHFIELD AVE",
    "city": "WEST ORANGE",
    "state": "NJ",
    "zip": "07052"
  },
  "1013098862": {
    "npi": "1013098862",
    "name": "PINAL, JOSE",
    "address": "526 42ND ST",
    "city": "UNION CITY",
    "state": "NJ",
    "zip": "07087"
  },
  "1942599741": {
    "npi": "1942599741",
    "name": "POPOWITZ, DANIEL",
    "address": "3400 BAINBRIDGE AVE",
    "city": "BRONX",
    "state": "NY",
    "zip": "10467"
  },
  "1962813899": {
    "npi": "1962813899",
    "name": "RAMREDDY, NITYA",
    "address": "311 BAY AVE STE 300A",
    "city": "GLEN RIDGE",
    "state": "NJ",
    "zip": "07028"
  },
  "1033368022": {
    "npi": "1033368022",
    "name": "REINKRAUT, JACOB",
    "address": "400 RTE 17",
    "city": "RIDGEWOOD",
    "state": "NJ",
    "zip": "07450"
  },
  "1851374839": {
    "npi": "1851374839",
    "name": "RICCIARDI, DANIEL",
    "address": "85 PIERREPONT ST",
    "city": "BROOKLYN",
    "state": "NY",
    "zip": "11201"
  },
  "1679152300": {
    "npi": "1679152300",
    "name": "ROBERTS, KELSEY",
    "address": "519 N DIXIE FWY",
    "city": "NEW SMYRNA",
    "state": "FL",
    "zip": "32168"
  },
  "1174750772": {
    "npi": "1174750772",
    "name": "RODRIGUEZ, REINERIO",
    "address": "225 60TH ST",
    "city": "WEST NEW YORK",
    "state": "NJ",
    "zip": "07093"
  },
  "1891895959": {
    "npi": "1891895959",
    "name": "ROSEN, ELLEN",
    "address": "101 OLD SHORT HILLS RD",
    "city": "WEST ORANGE",
    "state": "NJ",
    "zip": "07052"
  },
  "1487710851": {
    "npi": "1487710851",
    "name": "ROSSI, FRANCIS",
    "address": "3472 JOHN F KENNEDY BLVD",
    "city": "JERSEY CITY",
    "state": "NJ",
    "zip": "07307"
  },
  "1760410153": {
    "npi": "1760410153",
    "name": "ROSSI, PETER",
    "address": "70 W 32ND ST",
    "city": "BAYONNE",
    "state": "NJ",
    "zip": "07002"
  },
  "1942238225": {
    "npi": "1942238225",
    "name": "ROTH, JOSEPH",
    "address": "1130 MCBRIDE AVE FL 3",
    "city": "WOODLAND PARK",
    "state": "NJ",
    "zip": "07424"
  },
  "1255367280": {
    "npi": "1255367280",
    "name": "RUNDBACK, JOHN",
    "address": "718 TEANECK RD",
    "city": "TEANECK",
    "state": "NJ",
    "zip": "07666"
  },
  "1316911282": {
    "npi": "1316911282",
    "name": "SANCHEZ-PENA, JOSE",
    "address": "95 CRESCENT DR",
    "city": "RINGWOOD",
    "state": "NJ",
    "zip": "07456"
  },
  "1508244898": {
    "npi": "1508244898",
    "name": "SANCHEZ, RANDOLPH",
    "address": "401 ROUTE 73 N STE 320",
    "city": "MARLTON",
    "state": "NJ",
    "zip": "08053"
  },
  "1972765022": {
    "npi": "1972765022",
    "name": "SANGHAVI, MOUSHUMI",
    "address": "44 GRAMERCY PARK N",
    "city": "NEW YORK",
    "state": "NY",
    "zip": "10010"
  },
  "1265124085": {
    "npi": "1265124085",
    "name": "SCHADE, CAROLINE",
    "address": "1415 QUEEN ANNE RD",
    "city": "TEANECK",
    "state": "NJ",
    "zip": "07666"
  },
  "1942538715": {
    "npi": "1942538715",
    "name": "SEMAN, AHMED",
    "address": "377 JERSEY AVE STE 590",
    "city": "JERSEY CITY",
    "state": "NJ",
    "zip": "07302"
  },
  "1629398250": {
    "npi": "1629398250",
    "name": "SHADANI, SHAZIA",
    "address": "1540 SUNDAY DR",
    "city": "RALEIGH",
    "state": "NC",
    "zip": "27607"
  },
  "1912347030": {
    "npi": "1912347030",
    "name": "SHAH, AMOL",
    "address": "18 BUCHANON CT",
    "city": "WEST ORANGE",
    "state": "NJ",
    "zip": "07052"
  },
  "1881974574": {
    "npi": "1881974574",
    "name": "SHAH, KAVITHA",
    "address": "1135 BROAD ST",
    "city": "CLIFTON",
    "state": "NJ",
    "zip": "07013"
  },
  "1992069264": {
    "npi": "1992069264",
    "name": "SHAH, PARTH",
    "address": "175 MADISON AVE",
    "city": "MOUNT HOLLY",
    "state": "NJ",
    "zip": "08060"
  },
  "1386895688": {
    "npi": "1386895688",
    "name": "SHAH, REHAN",
    "address": "2239 WHITEHORSE MERCERVILLE RD",
    "city": "HAMILTON",
    "state": "NJ",
    "zip": "08619"
  },
  "1043209695": {
    "npi": "1043209695",
    "name": "SHAIKH, ANIQ",
    "address": "10800 DYLAN LOREN CIR",
    "city": "ORLANDO",
    "state": "FL",
    "zip": "32825"
  },
  "1366785115": {
    "npi": "1366785115",
    "name": "SHRENSEL, JEFFREY",
    "address": "727 RARITAN RD STE 101",
    "city": "CLARK",
    "state": "NJ",
    "zip": "07066"
  },
  "1659147130": {
    "npi": "1659147130",
    "name": "",
    "address": "311 N MIDLAND AVE STE 2",
    "city": "NYACK",
    "state": "NY",
    "zip": "10960"
  },
  "1063409191": {
    "npi": "1063409191",
    "name": "SIEGEL, WAYNE",
    "address": "255 ROUTE 3 STE 204",
    "city": "SECAUCUS",
    "state": "NJ",
    "zip": "07094"
  },
  "1346256773": {
    "npi": "1346256773",
    "name": "SINGHAL, ATUL",
    "address": "1600 REPUBLIC PKWY",
    "city": "MESQUITE",
    "state": "TX",
    "zip": "75150"
  },
  "1184872848": {
    "npi": "1184872848",
    "name": "SINHA, SMRITA",
    "address": "PO BOX 51074",
    "city": "NEWARK",
    "state": "NJ",
    "zip": "07101"
  },
  "1538279765": {
    "npi": "1538279765",
    "name": "SUE, LAWRENCE",
    "address": "2823 FRESNO ST",
    "city": "FRESNO",
    "state": "CA",
    "zip": "93721"
  },
  "1598025397": {
    "npi": "1598025397",
    "name": "SORKIN, CRAIG",
    "address": "2925 CHICAGO AVE",
    "city": "MINNEAPOLIS",
    "state": "MN",
    "zip": "55407"
  },
  "1659578664": {
    "npi": "1659578664",
    "name": "SOTIRIADIS, JOHN",
    "address": "9226 KENNEDY BLVD",
    "city": "NORTH BERGEN",
    "state": "NJ",
    "zip": "07047"
  },
  "1982631545": {
    "npi": "1982631545",
    "name": "STEIN, BRUCE",
    "address": "26112 E WILLISTON AVE",
    "city": "FLORAL PARK",
    "state": "NY",
    "zip": "11001"
  },
  "1265412191": {
    "npi": "1265412191",
    "name": "STOLLMAN, YACOV",
    "address": "7124 18TH AVE",
    "city": "BROOKLYN",
    "state": "NY",
    "zip": "11204"
  },
  "1588434500": {
    "npi": "1588434500",
    "name": "SUTTER, STEPHANIE",
    "address": "2415 N ORANGE AVE STE 200",
    "city": "ORLANDO",
    "state": "FL",
    "zip": "32804"
  },
  "1356532949": {
    "npi": "1356532949",
    "name": "SYED, HUMAIRA",
    "address": "1211 HAMBURG TPKE",
    "city": "WAYNE",
    "state": "NJ",
    "zip": "07470"
  },
  "1992132187": {
    "npi": "1992132187",
    "name": "SYLVAIN, PAUL",
    "address": "1275 YORK AVE",
    "city": "NEW YORK",
    "state": "NY",
    "zip": "10065"
  },
  "1073909925": {
    "npi": "1073909925",
    "name": "TARANGELO, NICHOLAS",
    "address": "101 MADISON AVE STE 100",
    "city": "MORRISTOWN",
    "state": "NJ",
    "zip": "07960"
  },
  "1073505376": {
    "npi": "1073505376",
    "name": "TEPLER, HAROLD",
    "address": "9225 KENNEDY BLVD",
    "city": "NORTH BERGEN",
    "state": "NJ",
    "zip": "07047"
  },
  "1245519354": {
    "npi": "1245519354",
    "name": "TJOE, EDWARD",
    "address": "66 YORK ST",
    "city": "JERSEY CITY",
    "state": "NJ",
    "zip": "07302"
  },
  "1508019456": {
    "npi": "1508019456",
    "name": "TOKLU, BORA",
    "address": "142 PALISADE AVE STE 115",
    "city": "JERSEY CITY",
    "state": "NJ",
    "zip": "07306"
  },
  "1083872584": {
    "npi": "1083872584",
    "name": "TUYAMA, ANA",
    "address": "210 WESTCHESTER AVE",
    "city": "WHITE PLAINS",
    "state": "NY",
    "zip": "10604"
  },
  "1548364896": {
    "npi": "1548364896",
    "name": "USMANI, QAISAR",
    "address": "2333 WHITEHORSE MERCERVILLE RD STE J",
    "city": "HAMILTON",
    "state": "NJ",
    "zip": "08619"
  },
  "1538709233": {
    "npi": "1538709233",
    "name": "VIDAL-COLLAZO, RAUL",
    "address": "2005 MIZELL AVE STE 2100",
    "city": "WINTER PARK",
    "state": "FL",
    "zip": "32792"
  },
  "1912089277": {
    "npi": "1912089277",
    "name": "VIDALI, ANDREA",
    "address": "800 WOODBURY RD",
    "city": "WOODBURY",
    "state": "NY",
    "zip": "11797"
  },
  "1508028770": {
    "npi": "1508028770",
    "name": "VIKSJO, MICHAEL",
    "address": "1308 MORRIS AVE STE 102",
    "city": "UNION",
    "state": "NJ",
    "zip": "07083"
  },
  "1447895412": {
    "npi": "1447895412",
    "name": "WACHSPRESS, ALIZA",
    "address": "474 OCEANPOINT AVE",
    "city": "CEDARHURST",
    "state": "NY",
    "zip": "11516"
  },
  "1962593947": {
    "npi": "1962593947",
    "name": "WALLACH, CARL",
    "address": "101 OLD SHORT HILLS RD",
    "city": "WEST ORANGE",
    "state": "NJ",
    "zip": "07052"
  },
  "1962430488": {
    "npi": "1962430488",
    "name": "WEISS, ANTHONY",
    "address": "620 COLUMBUS AVE",
    "city": "NEW YORK",
    "state": "NY",
    "zip": "10024"
  },
  "1457810798": {
    "npi": "1457810798",
    "name": "WEISSMAN, SIMCHA",
    "address": "7600 RIVER RD",
    "city": "NORTH BERGEN",
    "state": "NJ",
    "zip": "07047"
  },
  "1306336755": {
    "npi": "1306336755",
    "name": "WONG, DANNY",
    "address": "45 FRANCIS ST",
    "city": "BOSTON",
    "state": "MA",
    "zip": "02115"
  },
  "1346668423": {
    "npi": "1346668423",
    "name": "YANG, JANIE",
    "address": "311 E 79TH ST STE 2A",
    "city": "NEW YORK",
    "state": "NY",
    "zip": "10075"
  },
  "1730641234": {
    "npi": "1730641234",
    "name": "YI, KYLE",
    "address": "70 HUDSON ST BSMT",
    "city": "HOBOKEN",
    "state": "NJ",
    "zip": "07030"
  },
  "1417978883": {
    "npi": "1417978883",
    "name": "ZIERER, KENNETH",
    "address": "71 UNION AVE STE 201",
    "city": "RUTHERFORD",
    "state": "NJ",
    "zip": "07070"
  },
  "1760836365": {
    "npi": "1760836365",
    "name": "",
    "address": "2239 WHITEHORSE MERCERVILLE RD",
    "city": "HAMILTON",
    "state": "NJ",
    "zip": "08619"
  },
  "1053603340": {
    "npi": "1053603340",
    "name": "IYENGAR, ARJUN",
    "address": "550 1ST AVE",
    "city": "NEW YORK",
    "state": "NY",
    "zip": "10016"
  },
  "1063689339": {
    "npi": "1063689339",
    "name": "INAYAT, IRTEZA",
    "address": "2415 N ORANGE AVE",
    "city": "ORLANDO",
    "state": "FL",
    "zip": "32804"
  },
  "1447291653": {
    "npi": "1447291653",
    "name": "CHOLHAN, RUTH",
    "address": "285 ENGLE ST",
    "city": "ENGLEWOOD",
    "state": "NJ",
    "zip": "07631"
  },
  "1043383995": {
    "npi": "1043383995",
    "name": "ROSENDORF, ERIC",
    "address": "130 KINDERKAMACK RD",
    "city": "RIVER EDGE",
    "state": "NJ",
    "zip": "07661"
  },
  "1518428069": {
    "npi": "1518428069",
    "name": "BIEDERMAN, BENJAMIN",
    "address": "1130 MCBRIDE AVE FL 3",
    "city": "WOODLAND PARK",
    "state": "NJ",
    "zip": "07424"
  },
  "1376075762": {
    "npi": "1376075762",
    "name": "NGUYEN, QUYEN",
    "address": "100 N EDINBURGH DR STE 102",
    "city": "WINTER PARK",
    "state": "FL",
    "zip": "32792"
  },
  "1073580858": {
    "npi": "1073580858",
    "name": "RAPAPORT, ROBERT",
    "address": "1 GUSTAVE L LEVY PL",
    "city": "NEW YORK",
    "state": "NY",
    "zip": "10029"
  }
}